STARLINK-36300          
1 68303U 26057K   26087.83335647 -.01170363  45130-3 -20085-2 0  9998
2 68303  97.2799 210.9570 0001114  93.4418 145.3158 16.02511953  2388
STARLINK-36849          
1 68304U 26057L   26087.83335647 -.01158889  44427-3 -19635-2 0  9995
2 68304  97.2800 210.9594 0001061  78.1153 165.7782 16.02729323  2285
STARLINK-36277          
1 68305U 26057M   26087.83335647 -.01196312  47246-3 -19998-2 0  9993
2 68305  97.2794 210.9615 0001333  67.3767 181.8297 16.02964145  2446
STARLINK-36307          
1 68306U 26057N   26087.83335647 -.01163106  44781-3 -19587-2 0  9994
2 68306  97.2798 210.9604 0001186  85.4465 160.6402 16.02833800  2380
STARLINK-36264          
1 68307U 26057P   26087.83335647 -.01163036  44917-3 -19278-2 0  9995
2 68307  97.2796 210.9630 0001251  82.6117 169.8924 16.03103015  2440
STARLINK-37138          
1 68308U 26057Q   26087.83335647 -.01166824  45238-3 -19234-2 0  9993
2 68308  97.2790 210.9632 0001231  87.2983 167.0977 16.03197519  2111
STARLINK-37149          
1 68309U 26057R   26087.83335647 -.01166734  45290-3 -19107-2 0  9991
2 68309  97.2788 210.9643 0001221  81.6742 175.1889 16.03308760  2227
STARLINK-37148          
1 68310U 26057S   26087.83335647 -.01165223  45306-3 -18820-2 0  9994
2 68310  97.2788 210.9664 0001258  80.8280 181.1927 16.03542921  2331
STARLINK-37140          
1 68311U 26057T   26087.83335647 -.01153656  44416-3 -18764-2 0  9990
2 68311  97.2790 210.9657 0001173  71.8756 187.7299 16.03423156  2490
STARLINK-36854          
1 68312U 26057U   26087.83335647 -.01161581  45103-3 -18639-2 0  9992
2 68312  97.2788 210.9678 0001246  81.5901 182.7633 16.03652820  2288
STARLINK-36815          
1 68313U 26057V   26087.83335647 -.01148224  44211-3 -18294-2 0  9998
2 68313  97.2789 210.9693 0001190  70.0825 197.1132 16.03771002  2281
STARLINK-37155          
1 68314U 26057W   26087.83335647 -.01166112  45643-3 -18276-2 0  9995
2 68314  97.2785 210.9717 0001228  83.1139 190.0098 16.04050115  2335
STARLINK-37150          
1 68315U 26057X   26087.58335648 -.01190923  47710-3 -18173-2 0  9999
2 68315  97.2788 210.6972 0001234  77.5738 190.0107 16.04500506  2298
STARLINK-37154          
1 68316U 26057Y   26087.58335648 -.01179844  47118-3 -17576-2 0  9997
2 68316  97.2783 210.7007 0001082  61.7643 214.2172 16.04899785  2195
STARLINK-37139          
1 68317U 26057Z   26087.58335648 -.01190394  47823-3 -17877-2 0  9998
2 68317  97.2784 210.6995 0001119  71.6565 201.4756 16.04766554  2043
STARLINK-37113          
1 68318U 26057AA  26087.58335648 -.01180813  47273-3 -17435-2 0  9993
2 68318  97.2782 210.7022 0001131  63.2630 215.7141 16.05046501  2295
