[{"OBJECT_NAME":"STARLINK-36300","OBJECT_ID":"2026-057K","EPOCH":"2026-03-28T20:00:01.999008","MEAN_MOTION":16.02511953,"ECCENTRICITY":0.0001114,"INCLINATION":97.2799,"RA_OF_ASC_NODE":210.957,"ARG_OF_PERICENTER":93.4418,"MEAN_ANOMALY":145.3158,"EPHEMERIS_TYPE":0,"CLASSIFICATION_TYPE":"U","NORAD_CAT_ID":68303,"ELEMENT_SET_NO":999,"REV_AT_EPOCH":238,"BSTAR":-0.0020085,"MEAN_MOTION_DOT":-0.01170363,"MEAN_MOTION_DDOT":0.0004513},{"OBJECT_NAME":"STARLINK-36849","OBJECT_ID":"2026-057L","EPOCH":"2026-03-28T20:00:01.999008","MEAN_MOTION":16.02729323,"ECCENTRICITY":0.0001061,"INCLINATION":97.28,"RA_OF_ASC_NODE":210.9594,"ARG_OF_PERICENTER":78.1153,"MEAN_ANOMALY":165.7782,"EPHEMERIS_TYPE":0,"CLASSIFICATION_TYPE":"U","NORAD_CAT_ID":68304,"ELEMENT_SET_NO":999,"REV_AT_EPOCH":228,"BSTAR":-0.0019635,"MEAN_MOTION_DOT":-0.01158889,"MEAN_MOTION_DDOT":0.00044427},{"OBJECT_NAME":"STARLINK-36277","OBJECT_ID":"2026-057M","EPOCH":"2026-03-28T20:00:01.999008","MEAN_MOTION":16.02964145,"ECCENTRICITY":0.0001333,"INCLINATION":97.2794,"RA_OF_ASC_NODE":210.9615,"ARG_OF_PERICENTER":67.3767,"MEAN_ANOMALY":181.8297,"EPHEMERIS_TYPE":0,"CLASSIFICATION_TYPE":"U","NORAD_CAT_ID":68305,"ELEMENT_SET_NO":999,"REV_AT_EPOCH":244,"BSTAR":-0.0019998,"MEAN_MOTION_DOT":-0.01196312,"MEAN_MOTION_DDOT":0.00047246},{"OBJECT_NAME":"STARLINK-36307","OBJECT_ID":"2026-057N","EPOCH":"2026-03-28T20:00:01.999008","MEAN_MOTION":16.028338,"ECCENTRICITY":0.0001186,"INCLINATION":97.2798,"RA_OF_ASC_NODE":210.9604,"ARG_OF_PERICENTER":85.4465,"MEAN_ANOMALY":160.6402,"EPHEMERIS_TYPE":0,"CLASSIFICATION_TYPE":"U","NORAD_CAT_ID":68306,"ELEMENT_SET_NO":999,"REV_AT_EPOCH":238,"BSTAR":-0.0019587,"MEAN_MOTION_DOT":-0.01163106,"MEAN_MOTION_DDOT":0.00044781},{"OBJECT_NAME":"STARLINK-36264","OBJECT_ID":"2026-057P","EPOCH":"2026-03-28T20:00:01.999008","MEAN_MOTION":16.03103015,"ECCENTRICITY":0.0001251,"INCLINATION":97.2796,"RA_OF_ASC_NODE":210.963,"ARG_OF_PERICENTER":82.6117,"MEAN_ANOMALY":169.8924,"EPHEMERIS_TYPE":0,"CLASSIFICATION_TYPE":"U","NORAD_CAT_ID":68307,"ELEMENT_SET_NO":999,"REV_AT_EPOCH":244,"BSTAR":-0.0019278,"MEAN_MOTION_DOT":-0.01163036,"MEAN_MOTION_DDOT":0.00044917},{"OBJECT_NAME":"STARLINK-37138","OBJECT_ID":"2026-057Q","EPOCH":"2026-03-28T20:00:01.999008","MEAN_MOTION":16.03197519,"ECCENTRICITY":0.0001231,"INCLINATION":97.279,"RA_OF_ASC_NODE":210.9632,"ARG_OF_PERICENTER":87.2983,"MEAN_ANOMALY":167.0977,"EPHEMERIS_TYPE":0,"CLASSIFICATION_TYPE":"U","NORAD_CAT_ID":68308,"ELEMENT_SET_NO":999,"REV_AT_EPOCH":211,"BSTAR":-0.0019234,"MEAN_MOTION_DOT":-0.01166824,"MEAN_MOTION_DDOT":0.00045238},{"OBJECT_NAME":"STARLINK-37149","OBJECT_ID":"2026-057R","EPOCH":"2026-03-28T20:00:01.999008","MEAN_MOTION":16.0330876,"ECCENTRICITY":0.0001221,"INCLINATION":97.2788,"RA_OF_ASC_NODE":210.9643,"ARG_OF_PERICENTER":81.6742,"MEAN_ANOMALY":175.1889,"EPHEMERIS_TYPE":0,"CLASSIFICATION_TYPE":"U","NORAD_CAT_ID":68309,"ELEMENT_SET_NO":999,"REV_AT_EPOCH":222,"BSTAR":-0.0019107,"MEAN_MOTION_DOT":-0.01166734,"MEAN_MOTION_DDOT":0.0004529},{"OBJECT_NAME":"STARLINK-37148","OBJECT_ID":"2026-057S","EPOCH":"2026-03-28T20:00:01.999008","MEAN_MOTION":16.03542921,"ECCENTRICITY":0.0001258,"INCLINATION":97.2788,"RA_OF_ASC_NODE":210.9664,"ARG_OF_PERICENTER":80.828,"MEAN_ANOMALY":181.1927,"EPHEMERIS_TYPE":0,"CLASSIFICATION_TYPE":"U","NORAD_CAT_ID":68310,"ELEMENT_SET_NO":999,"REV_AT_EPOCH":233,"BSTAR":-0.001882,"MEAN_MOTION_DOT":-0.01165223,"MEAN_MOTION_DDOT":0.00045306},{"OBJECT_NAME":"STARLINK-37140","OBJECT_ID":"2026-057T","EPOCH":"2026-03-28T20:00:01.999008","MEAN_MOTION":16.03423156,"ECCENTRICITY":0.0001173,"INCLINATION":97.279,"RA_OF_ASC_NODE":210.9657,"ARG_OF_PERICENTER":71.8756,"MEAN_ANOMALY":187.7299,"EPHEMERIS_TYPE":0,"CLASSIFICATION_TYPE":"U","NORAD_CAT_ID":68311,"ELEMENT_SET_NO":999,"REV_AT_EPOCH":249,"BSTAR":-0.0018764,"MEAN_MOTION_DOT":-0.01153656,"MEAN_MOTION_DDOT":0.00044416},{"OBJECT_NAME":"STARLINK-36854","OBJECT_ID":"2026-057U","EPOCH":"2026-03-28T20:00:01.999008","MEAN_MOTION":16.0365282,"ECCENTRICITY":0.0001246,"INCLINATION":97.2788,"RA_OF_ASC_NODE":210.9678,"ARG_OF_PERICENTER":81.5901,"MEAN_ANOMALY":182.7633,"EPHEMERIS_TYPE":0,"CLASSIFICATION_TYPE":"U","NORAD_CAT_ID":68312,"ELEMENT_SET_NO":999,"REV_AT_EPOCH":228,"BSTAR":-0.0018639,"MEAN_MOTION_DOT":-0.01161581,"MEAN_MOTION_DDOT":0.00045103},{"OBJECT_NAME":"STARLINK-36815","OBJECT_ID":"2026-057V","EPOCH":"2026-03-28T20:00:01.999008","MEAN_MOTION":16.03771002,"ECCENTRICITY":0.000119,"INCLINATION":97.2789,"RA_OF_ASC_NODE":210.9693,"ARG_OF_PERICENTER":70.0825,"MEAN_ANOMALY":197.1132,"EPHEMERIS_TYPE":0,"CLASSIFICATION_TYPE":"U","NORAD_CAT_ID":68313,"ELEMENT_SET_NO":999,"REV_AT_EPOCH":228,"BSTAR":-0.0018294,"MEAN_MOTION_DOT":-0.01148224,"MEAN_MOTION_DDOT":0.00044211},{"OBJECT_NAME":"STARLINK-37155","OBJECT_ID":"2026-057W","EPOCH":"2026-03-28T20:00:01.999008","MEAN_MOTION":16.04050115,"ECCENTRICITY":0.0001228,"INCLINATION":97.2785,"RA_OF_ASC_NODE":210.9717,"ARG_OF_PERICENTER":83.1139,"MEAN_ANOMALY":190.0098,"EPHEMERIS_TYPE":0,"CLASSIFICATION_TYPE":"U","NORAD_CAT_ID":68314,"ELEMENT_SET_NO":999,"REV_AT_EPOCH":233,"BSTAR":-0.0018276,"MEAN_MOTION_DOT":-0.01166112,"MEAN_MOTION_DDOT":0.00045643},{"OBJECT_NAME":"STARLINK-37150","OBJECT_ID":"2026-057X","EPOCH":"2026-03-28T14:00:01.999872","MEAN_MOTION":16.04500506,"ECCENTRICITY":0.00012345,"INCLINATION":97.2788,"RA_OF_ASC_NODE":210.6972,"ARG_OF_PERICENTER":77.5738,"MEAN_ANOMALY":190.0107,"EPHEMERIS_TYPE":0,"CLASSIFICATION_TYPE":"U","NORAD_CAT_ID":68315,"ELEMENT_SET_NO":999,"REV_AT_EPOCH":229,"BSTAR":-0.0018173105,"MEAN_MOTION_DOT":-0.01190923,"MEAN_MOTION_DDOT":0.00047710283},{"OBJECT_NAME":"STARLINK-37154","OBJECT_ID":"2026-057Y","EPOCH":"2026-03-28T14:00:01.999872","MEAN_MOTION":16.04899785,"ECCENTRICITY":0.00010824,"INCLINATION":97.2783,"RA_OF_ASC_NODE":210.7007,"ARG_OF_PERICENTER":61.7643,"MEAN_ANOMALY":214.2172,"EPHEMERIS_TYPE":0,"CLASSIFICATION_TYPE":"U","NORAD_CAT_ID":68316,"ELEMENT_SET_NO":999,"REV_AT_EPOCH":219,"BSTAR":-0.0017575945,"MEAN_MOTION_DOT":-0.01179844,"MEAN_MOTION_DDOT":0.00047118055},{"OBJECT_NAME":"STARLINK-37139","OBJECT_ID":"2026-057Z","EPOCH":"2026-03-28T14:00:01.999872","MEAN_MOTION":16.04766554,"ECCENTRICITY":0.00011193,"INCLINATION":97.2784,"RA_OF_ASC_NODE":210.6995,"ARG_OF_PERICENTER":71.6565,"MEAN_ANOMALY":201.4756,"EPHEMERIS_TYPE":0,"CLASSIFICATION_TYPE":"U","NORAD_CAT_ID":68317,"ELEMENT_SET_NO":999,"REV_AT_EPOCH":204,"BSTAR":-0.0017877459,"MEAN_MOTION_DOT":-0.01190394,"MEAN_MOTION_DDOT":0.00047823293},{"OBJECT_NAME":"STARLINK-37113","OBJECT_ID":"2026-057AA","EPOCH":"2026-03-28T14:00:01.999872","MEAN_MOTION":16.05046501,"ECCENTRICITY":0.0001131,"INCLINATION":97.2782,"RA_OF_ASC_NODE":210.7022,"ARG_OF_PERICENTER":63.263,"MEAN_ANOMALY":215.7141,"EPHEMERIS_TYPE":0,"CLASSIFICATION_TYPE":"U","NORAD_CAT_ID":68318,"ELEMENT_SET_NO":999,"REV_AT_EPOCH":229,"BSTAR":-0.0017435452,"MEAN_MOTION_DOT":-0.01180813,"MEAN_MOTION_DDOT":0.00047273014}]
